KUIPER-00035            
1 63748U 25088AA  25254.55057715 -.00000922  00000+0 -91668-4 0  9992
2 63748  51.9010 186.2482 0005318 192.9663 167.1164 14.79956583 20982
KUIPER-00037            
1 63749U 25088AB  25254.55227526  .00000836  00000+0  13879-3 0  9991
2 63749  51.8991 185.2069 0006908 137.9204 222.2290 14.79955195 21786
KUIPER-00038            
1 63750U 25088AC  25254.94687678  .00000828  00000+0  10499-3 0  9990
2 63750  51.8950 168.2053 0006003 197.0559 163.0207 14.92028444 21056
KUIPER-00039            
1 64500U 25134A   25254.91670139 -.00513171  00000+0 -31577-1 0  9997
2 64500  51.8980 305.4312 0012944  54.0812 292.6720 15.11619847  5901
KUIPER-00040            
1 64501U 25134B   25254.91670139 -.00041179  00000+0 -54510-2 0  9995
2 64501  51.8998 314.7702 0017919  45.2097 227.3331 14.79456469  5805
KUIPER-00041            
1 64502U 25134C   25254.45973754  .00002478  00000+0  35413-3 0  9993
2 64502  51.8994 318.1569 0014543  36.9805 323.2157 14.79899134 13356
KUIPER-00042            
1 64503U 25134D   25254.91670139 -.00164020  00000+0 -20660-1 0  9996
2 64503  51.9124 312.1091 0014403  46.2831 220.2647 14.82485136  4576
KUIPER-00043            
1 64504U 25134E   25254.91670139 -.00003808  00000+0 -22145-3 0  9995
2 64504  51.8843 306.3981 0007455  35.8119 249.7013 15.08721682  5751
