<?xml version="1.0" encoding="UTF-8"?>
<ndm xmlns:xsi="http://www.w3.org/2001/XMLSchema-instance" xsi:noNamespaceSchemaLocation="https://sanaregistry.org/r/ndmxml_unqualified/ndmxml-2.0.0-master-2.0.xsd">
<omm id="CCSDS_OMM_VERS" version="2.0">
<header><CREATION_DATE/><ORIGINATOR/></header><body><segment><metadata><OBJECT_NAME>KUIPER-00035</OBJECT_NAME><OBJECT_ID>2025-088AA</OBJECT_ID><CENTER_NAME>EARTH</CENTER_NAME><REF_FRAME>TEME</REF_FRAME><TIME_SYSTEM>UTC</TIME_SYSTEM><MEAN_ELEMENT_THEORY>SGP4</MEAN_ELEMENT_THEORY></metadata><data><meanElements><EPOCH>2025-09-11T13:12:49.865760</EPOCH><MEAN_MOTION>14.79956583</MEAN_MOTION><ECCENTRICITY>.00053187</ECCENTRICITY><INCLINATION>51.9010</INCLINATION><RA_OF_ASC_NODE>186.2482</RA_OF_ASC_NODE><ARG_OF_PERICENTER>192.9663</ARG_OF_PERICENTER><MEAN_ANOMALY>167.1164</MEAN_ANOMALY></meanElements><tleParameters><EPHEMERIS_TYPE>0</EPHEMERIS_TYPE><CLASSIFICATION_TYPE>U</CLASSIFICATION_TYPE><NORAD_CAT_ID>63748</NORAD_CAT_ID><ELEMENT_SET_NO>999</ELEMENT_SET_NO><REV_AT_EPOCH>2098</REV_AT_EPOCH><BSTAR>-.91668302E-4</BSTAR><MEAN_MOTION_DOT>-.922E-5</MEAN_MOTION_DOT><MEAN_MOTION_DDOT>0</MEAN_MOTION_DDOT></tleParameters></data></segment></body></omm>
<omm id="CCSDS_OMM_VERS" version="2.0">
<header><CREATION_DATE/><ORIGINATOR/></header><body><segment><metadata><OBJECT_NAME>KUIPER-00037</OBJECT_NAME><OBJECT_ID>2025-088AB</OBJECT_ID><CENTER_NAME>EARTH</CENTER_NAME><REF_FRAME>TEME</REF_FRAME><TIME_SYSTEM>UTC</TIME_SYSTEM><MEAN_ELEMENT_THEORY>SGP4</MEAN_ELEMENT_THEORY></metadata><data><meanElements><EPOCH>2025-09-11T13:15:16.582464</EPOCH><MEAN_MOTION>14.79955195</MEAN_MOTION><ECCENTRICITY>.00069088</ECCENTRICITY><INCLINATION>51.8991</INCLINATION><RA_OF_ASC_NODE>185.2069</RA_OF_ASC_NODE><ARG_OF_PERICENTER>137.9204</ARG_OF_PERICENTER><MEAN_ANOMALY>222.2290</MEAN_ANOMALY></meanElements><tleParameters><EPHEMERIS_TYPE>0</EPHEMERIS_TYPE><CLASSIFICATION_TYPE>U</CLASSIFICATION_TYPE><NORAD_CAT_ID>63749</NORAD_CAT_ID><ELEMENT_SET_NO>999</ELEMENT_SET_NO><REV_AT_EPOCH>2178</REV_AT_EPOCH><BSTAR>.13879134E-3</BSTAR><MEAN_MOTION_DOT>.836E-5</MEAN_MOTION_DOT><MEAN_MOTION_DDOT>0</MEAN_MOTION_DDOT></tleParameters></data></segment></body></omm>
<omm id="CCSDS_OMM_VERS" version="2.0">
<header><CREATION_DATE/><ORIGINATOR/></header><body><segment><metadata><OBJECT_NAME>KUIPER-00038</OBJECT_NAME><OBJECT_ID>2025-088AC</OBJECT_ID><CENTER_NAME>EARTH</CENTER_NAME><REF_FRAME>TEME</REF_FRAME><TIME_SYSTEM>UTC</TIME_SYSTEM><MEAN_ELEMENT_THEORY>SGP4</MEAN_ELEMENT_THEORY></metadata><data><meanElements><EPOCH>2025-09-11T22:43:30.153792</EPOCH><MEAN_MOTION>14.92028444</MEAN_MOTION><ECCENTRICITY>.00060031</ECCENTRICITY><INCLINATION>51.8950</INCLINATION><RA_OF_ASC_NODE>168.2053</RA_OF_ASC_NODE><ARG_OF_PERICENTER>197.0559</ARG_OF_PERICENTER><MEAN_ANOMALY>163.0207</MEAN_ANOMALY></meanElements><tleParameters><EPHEMERIS_TYPE>0</EPHEMERIS_TYPE><CLASSIFICATION_TYPE>U</CLASSIFICATION_TYPE><NORAD_CAT_ID>63750</NORAD_CAT_ID><ELEMENT_SET_NO>999</ELEMENT_SET_NO><REV_AT_EPOCH>2105</REV_AT_EPOCH><BSTAR>.10498515E-3</BSTAR><MEAN_MOTION_DOT>.828E-5</MEAN_MOTION_DOT><MEAN_MOTION_DDOT>0</MEAN_MOTION_DDOT></tleParameters></data></segment></body></omm>
<omm id="CCSDS_OMM_VERS" version="2.0">
<header><CREATION_DATE/><ORIGINATOR/></header><body><segment><metadata><OBJECT_NAME>KUIPER-00039</OBJECT_NAME><OBJECT_ID>2025-134A</OBJECT_ID><CENTER_NAME>EARTH</CENTER_NAME><REF_FRAME>TEME</REF_FRAME><TIME_SYSTEM>UTC</TIME_SYSTEM><MEAN_ELEMENT_THEORY>SGP4</MEAN_ELEMENT_THEORY></metadata><data><meanElements><EPOCH>2025-09-11T22:00:03.000096</EPOCH><MEAN_MOTION>15.11619847</MEAN_MOTION><ECCENTRICITY>.00129445</ECCENTRICITY><INCLINATION>51.8980</INCLINATION><RA_OF_ASC_NODE>305.4312</RA_OF_ASC_NODE><ARG_OF_PERICENTER>54.0812</ARG_OF_PERICENTER><MEAN_ANOMALY>292.6720</MEAN_ANOMALY></meanElements><tleParameters><EPHEMERIS_TYPE>0</EPHEMERIS_TYPE><CLASSIFICATION_TYPE>U</CLASSIFICATION_TYPE><NORAD_CAT_ID>64500</NORAD_CAT_ID><ELEMENT_SET_NO>999</ELEMENT_SET_NO><REV_AT_EPOCH>590</REV_AT_EPOCH><BSTAR>-.31576676E-1</BSTAR><MEAN_MOTION_DOT>-.513171E-2</MEAN_MOTION_DOT><MEAN_MOTION_DDOT>0</MEAN_MOTION_DDOT></tleParameters></data></segment></body></omm>
<omm id="CCSDS_OMM_VERS" version="2.0">
<header><CREATION_DATE/><ORIGINATOR/></header><body><segment><metadata><OBJECT_NAME>KUIPER-00040</OBJECT_NAME><OBJECT_ID>2025-134B</OBJECT_ID><CENTER_NAME>EARTH</CENTER_NAME><REF_FRAME>TEME</REF_FRAME><TIME_SYSTEM>UTC</TIME_SYSTEM><MEAN_ELEMENT_THEORY>SGP4</MEAN_ELEMENT_THEORY></metadata><data><meanElements><EPOCH>2025-09-11T22:00:03.000096</EPOCH><MEAN_MOTION>14.79456469</MEAN_MOTION><ECCENTRICITY>.00179194</ECCENTRICITY><INCLINATION>51.8998</INCLINATION><RA_OF_ASC_NODE>314.7702</RA_OF_ASC_NODE><ARG_OF_PERICENTER>45.2097</ARG_OF_PERICENTER><MEAN_ANOMALY>227.3331</MEAN_ANOMALY></meanElements><tleParameters><EPHEMERIS_TYPE>0</EPHEMERIS_TYPE><CLASSIFICATION_TYPE>U</CLASSIFICATION_TYPE><NORAD_CAT_ID>64501</NORAD_CAT_ID><ELEMENT_SET_NO>999</ELEMENT_SET_NO><REV_AT_EPOCH>580</REV_AT_EPOCH><BSTAR>-.54510051E-2</BSTAR><MEAN_MOTION_DOT>-.41179E-3</MEAN_MOTION_DOT><MEAN_MOTION_DDOT>0</MEAN_MOTION_DDOT></tleParameters></data></segment></body></omm>
<omm id="CCSDS_OMM_VERS" version="2.0">
<header><CREATION_DATE/><ORIGINATOR/></header><body><segment><metadata><OBJECT_NAME>KUIPER-00041</OBJECT_NAME><OBJECT_ID>2025-134C</OBJECT_ID><CENTER_NAME>EARTH</CENTER_NAME><REF_FRAME>TEME</REF_FRAME><TIME_SYSTEM>UTC</TIME_SYSTEM><MEAN_ELEMENT_THEORY>SGP4</MEAN_ELEMENT_THEORY></metadata><data><meanElements><EPOCH>2025-09-11T11:02:01.323456</EPOCH><MEAN_MOTION>14.79899134</MEAN_MOTION><ECCENTRICITY>.00145433</ECCENTRICITY><INCLINATION>51.8994</INCLINATION><RA_OF_ASC_NODE>318.1569</RA_OF_ASC_NODE><ARG_OF_PERICENTER>36.9805</ARG_OF_PERICENTER><MEAN_ANOMALY>323.2157</MEAN_ANOMALY></meanElements><tleParameters><EPHEMERIS_TYPE>0</EPHEMERIS_TYPE><CLASSIFICATION_TYPE>U</CLASSIFICATION_TYPE><NORAD_CAT_ID>64502</NORAD_CAT_ID><ELEMENT_SET_NO>999</ELEMENT_SET_NO><REV_AT_EPOCH>1335</REV_AT_EPOCH><BSTAR>.35413176E-3</BSTAR><MEAN_MOTION_DOT>.2478E-4</MEAN_MOTION_DOT><MEAN_MOTION_DDOT>0</MEAN_MOTION_DDOT></tleParameters></data></segment></body></omm>
<omm id="CCSDS_OMM_VERS" version="2.0">
<header><CREATION_DATE/><ORIGINATOR/></header><body><segment><metadata><OBJECT_NAME>KUIPER-00042</OBJECT_NAME><OBJECT_ID>2025-134D</OBJECT_ID><CENTER_NAME>EARTH</CENTER_NAME><REF_FRAME>TEME</REF_FRAME><TIME_SYSTEM>UTC</TIME_SYSTEM><MEAN_ELEMENT_THEORY>SGP4</MEAN_ELEMENT_THEORY></metadata><data><meanElements><EPOCH>2025-09-11T22:00:03.000096</EPOCH><MEAN_MOTION>14.82485136</MEAN_MOTION><ECCENTRICITY>.00144034</ECCENTRICITY><INCLINATION>51.9124</INCLINATION><RA_OF_ASC_NODE>312.1091</RA_OF_ASC_NODE><ARG_OF_PERICENTER>46.2831</ARG_OF_PERICENTER><MEAN_ANOMALY>220.2647</MEAN_ANOMALY></meanElements><tleParameters><EPHEMERIS_TYPE>0</EPHEMERIS_TYPE><CLASSIFICATION_TYPE>U</CLASSIFICATION_TYPE><NORAD_CAT_ID>64503</NORAD_CAT_ID><ELEMENT_SET_NO>999</ELEMENT_SET_NO><REV_AT_EPOCH>457</REV_AT_EPOCH><BSTAR>-.20660303E-1</BSTAR><MEAN_MOTION_DOT>-.16402E-2</MEAN_MOTION_DOT><MEAN_MOTION_DDOT>0</MEAN_MOTION_DDOT></tleParameters></data></segment></body></omm>
<omm id="CCSDS_OMM_VERS" version="2.0">
<header><CREATION_DATE/><ORIGINATOR/></header><body><segment><metadata><OBJECT_NAME>KUIPER-00043</OBJECT_NAME><OBJECT_ID>2025-134E</OBJECT_ID><CENTER_NAME>EARTH</CENTER_NAME><REF_FRAME>TEME</REF_FRAME><TIME_SYSTEM>UTC</TIME_SYSTEM><MEAN_ELEMENT_THEORY>SGP4</MEAN_ELEMENT_THEORY></metadata><data><meanElements><EPOCH>2025-09-11T22:00:03.000096</EPOCH><MEAN_MOTION>15.08721682</MEAN_MOTION><ECCENTRICITY>.00074556</ECCENTRICITY><INCLINATION>51.8843</INCLINATION><RA_OF_ASC_NODE>306.3981</RA_OF_ASC_NODE><ARG_OF_PERICENTER>35.8119</ARG_OF_PERICENTER><MEAN_ANOMALY>249.7013</MEAN_ANOMALY></meanElements><tleParameters><EPHEMERIS_TYPE>0</EPHEMERIS_TYPE><CLASSIFICATION_TYPE>U</CLASSIFICATION_TYPE><NORAD_CAT_ID>64504</NORAD_CAT_ID><ELEMENT_SET_NO>999</ELEMENT_SET_NO><REV_AT_EPOCH>575</REV_AT_EPOCH><BSTAR>-.22144736E-3</BSTAR><MEAN_MOTION_DOT>-.3808E-4</MEAN_MOTION_DOT><MEAN_MOTION_DDOT>0</MEAN_MOTION_DDOT></tleParameters></data></segment></body></omm>

</ndm>
